NORAD_CAT_ID,OBJECT_NAME,OBJECT_TYPE,EPOCH,MEAN_MOTION,ECCENTRICITY,INCLINATION,RA_OF_ASC_NODE,ARG_OF_PERICENTER,MEAN_ANOMALY,BSTAR,MEAN_MOTION_DOT,MEAN_MOTION_DDOT,TLE_LINE0,TLE_LINE1,TLE_LINE2,SEMIMAJOR_AXIS,PERIOD,APOGEE,PERIGEE,DECAYED
52107.0,STARLINK-3658,PAYLOAD,2023-08-15 01:32:43,15.08844411,0.0001122,53.2172,328.2859,85.1408,274.9713,0.00027866,4.15e-05,0.0,0 STARLINK-3658,1 52107U 22029V   23227.06439231  .00004150  00000-0  27866-3 0  9996,2 52107  53.2172 328.2859 0001122  85.1408 274.9713 15.08844411 79236,6917.867,95.437,540.508,538.956,0.0
52107.0,STARLINK-3658,PAYLOAD,2023-08-16 10:55:49,15.08843774,9.86e-05,53.2175,322.0403,85.8985,274.212,0.00010071,1.316e-05,0.0,0 STARLINK-3658,1 52107U 22029V   23228.45543108  .00001316  00000-0  10071-3 0  9990,2 52107  53.2175 322.0403 0000986  85.8985 274.2120 15.08843774 79449,6917.869,95.437,540.416,539.052,0.0
52107.0,STARLINK-3658,PAYLOAD,2023-08-16 23:38:54,15.08832089,8.96e-05,53.218,319.6591,98.5869,261.5225,0.00033315,5.017e-05,0.0,0 STARLINK-3658,1 52107U 22029V   23228.98535483  .00005017  00000-0  33315-3 0  9993,2 52107  53.2180 319.6591 0000896  98.5869 261.5225 15.08832089 79528,6917.905,95.438,540.389,539.15,0.0
52107.0,STARLINK-3658,PAYLOAD,2023-08-17 15:32:45,15.08846316,0.0001225,53.2163,316.6876,91.2425,268.8707,0.00012693,1.733e-05,0.0,0 STARLINK-3658,1 52107U 22029V   23229.64774935  .00001733  00000-0  12693-3 0  9991,2 52107  53.2163 316.6876 0001225  91.2425 268.8707 15.08846316 79621,6917.861,95.437,540.574,538.879,0.0
52107.0,STARLINK-3658,PAYLOAD,2023-08-17 23:29:41,15.08839385,0.0001269,53.2168,315.201,78.3354,281.778,9.7314e-05,1.261e-05,0.0,0 STARLINK-3658,1 52107U 22029V   23229.97895339  .00001261  00000-0  97314-4 0  9999,2 52107  53.2168 315.2010 0001269  78.3354 281.7780 15.08839385 79674,6917.882,95.438,540.625,538.869,0.0
52107.0,STARLINK-3658,PAYLOAD,2023-08-18 10:37:23,15.08834885,0.0001087,53.2176,313.1192,100.6507,259.4607,2.9315e-05,1.79e-06,0.0,0 STARLINK-3658,1 52107U 22029V   23230.44263711  .00000179  00000-0  29315-4 0  9999,2 52107  53.2176 313.1192 0001087 100.6507 259.4607 15.08834885 79746,6917.896,95.438,540.513,539.009,0.0
52107.0,STARLINK-3658,PAYLOAD,2023-08-19 15:14:19,15.08846669,0.0001103,53.2174,307.7658,118.7834,241.3269,0.00011323,1.515e-05,0.0,0 STARLINK-3658,1 52107U 22029V   23231.63494762  .00001515  00000-0  11323-3 0  9997,2 52107  53.2174 307.7658 0001103 118.7834 241.3269 15.08846669 79929,6917.86,95.437,540.488,538.962,0.0
52107.0,STARLINK-3658,PAYLOAD,2023-08-20 03:57:25,15.08833949,0.0001255,53.2175,305.3883,85.0501,275.0635,9.3401e-05,1.199e-05,0.0,0 STARLINK-3658,1 52107U 22029V   23232.16488007  .00001199  00000-0  93401-4 0  9997,2 52107  53.2175 305.3883 0001255  85.0501 275.0635 15.08833949 80008,6917.899,95.438,540.632,538.896,0.0
52107.0,STARLINK-3658,PAYLOAD,2023-08-21 10:09:45,15.08840033,0.0001154,53.2164,299.7387,97.4634,262.6489,1.5386e-05,-4.3e-07,0.0,0 STARLINK-3658,1 52107U 22029V   23233.42343808 -.00000043  00000-0  15386-4 0  9990,2 52107  53.2164 299.7387 0001154  97.4634 262.6489 15.08840033 80194,6917.88,95.438,540.544,538.947,0.0
52107.0,STARLINK-3658,PAYLOAD,2023-08-21 22:52:52,15.08800678,0.0001416,53.2165,297.3598,116.393,243.7207,0.0013748,0.00021636,0.0,0 STARLINK-3658,1 52107U 22029V   23233.95338633  .00021636  00000-0  13748-2 0  9996,2 52107  53.2165 297.3598 0001416 116.3930 243.7207 15.08800678 80272,6918.001,95.44,540.845,538.886,0.0
52107.0,STARLINK-3658,PAYLOAD,2023-08-22 10:00:31,15.08847649,0.0001079,53.2164,295.2783,96.711,263.4005,-7.2619e-05,-1.444e-05,0.0,0 STARLINK-3658,1 52107U 22029V   23234.41703507 -.00001444  00000-0 -72619-4 0  9995,2 52107  53.2164 295.2783 0001079  96.7110 263.4005 15.08847649 80342,6917.857,95.437,540.468,538.976,0.0
52107.0,STARLINK-3658,PAYLOAD,2023-08-23 11:26:42,15.08842097,0.0001374,53.2166,290.5224,92.7399,267.3751,2.597e-05,1.25e-06,0.0,0 STARLINK-3658,1 52107U 22029V   23235.47687995  .00000125  00000-0  25970-4 0  9995,2 52107  53.2166 290.5224 0001374  92.7399 267.3751 15.08842097 80506,6917.874,95.437,540.689,538.788,0.0
52107.0,STARLINK-3658,PAYLOAD,2023-08-24 09:42:06,15.08838149,0.0001301,53.2172,286.359,87.7223,272.3918,5.0185e-05,5.11e-06,0.0,0 STARLINK-3658,1 52107U 22029V   23236.40424548  .00000511  00000-0  50185-4 0  9997,2 52107  53.2172 286.3590 0001301  87.7223 272.3918 15.08838149 80641,6917.886,95.438,540.651,538.851,0.0
52107.0,STARLINK-3658,PAYLOAD,2023-08-25 09:32:53,15.08843427,0.0001251,53.2165,281.8976,85.0127,275.1008,0.00011085,1.477e-05,0.0,0 STARLINK-3658,1 52107U 22029V   23237.39784030  .00001477  00000-0  11085-3 0  9998,2 52107  53.2165 281.8976 0001251  85.0127 275.1008 15.08843427 80791,6917.87,95.437,540.6,538.869,0.0
52107.0,STARLINK-3658,PAYLOAD,2023-08-25 23:51:21,15.08838488,0.0001231,53.2163,279.2206,89.3451,270.7682,8.77e-05,1.108e-05,0.0,0 STARLINK-3658,1 52107U 22029V   23237.99400384  .00001108  00000-0  87700-4 0  9990,2 52107  53.2163 279.2206 0001231  89.3451 270.7682 15.08838488 80881,6917.885,95.438,540.602,538.898,0.0
52107.0,STARLINK-3658,PAYLOAD,2023-08-26 09:23:40,15.08838136,0.0001231,53.2163,277.4363,89.6716,270.4417,7.4206e-05,8.93e-06,0.0,0 STARLINK-3658,1 52107U 22029V   23238.39144496  .00000893  00000-0  74206-4 0  9991,2 52107  53.2163 277.4363 0001231  89.6716 270.4417 15.08838136 80942,6917.886,95.438,540.603,538.899,0.0
52107.0,STARLINK-3658,PAYLOAD,2023-08-27 02:52:55,15.0884043,0.000124,53.2161,274.1646,92.2948,267.8186,5.9736e-05,6.63e-06,0.0,0 STARLINK-3658,1 52107U 22029V   23239.12008394  .00000663  00000-0  59736-4 0  9995,2 52107  53.2161 274.1646 0001240  92.2948 267.8186 15.08840430 81051,6917.879,95.438,540.602,538.886,0.0
52107.0,STARLINK-3658,PAYLOAD,2023-08-28 02:43:42,15.08833953,0.0001304,53.2169,269.7088,85.4685,274.6456,4.9492e-05,5e-06,0.0,0 STARLINK-3658,1 52107U 22029V   23240.11368969  .00000500  00000-0  49492-4 0  9991,2 52107  53.2169 269.7088 0001304  85.4685 274.6456 15.08833953 81207,6917.899,95.438,540.666,538.862,0.0
52107.0,STARLINK-3658,PAYLOAD,2023-08-28 18:37:34,15.0883746,0.0001325,53.2166,266.7309,87.7893,272.325,4.8639e-05,4.86e-06,0.0,0 STARLINK-3658,1 52107U 22029V   23240.77608854  .00000486  00000-0  48639-4 0  9998,2 52107  53.2166 266.7309 0001325  87.7893 272.3250 15.08837460 81301,6917.888,95.438,540.67,538.837,0.0
52107.0,STARLINK-3658,PAYLOAD,2023-08-29 08:56:02,15.08838668,0.0001377,53.2165,264.0549,91.0349,269.0801,5.0318e-05,5.13e-06,0.0,0 STARLINK-3658,1 52107U 22029V   23241.37224880  .00000513  00000-0  50318-4 0  9996,2 52107  53.2165 264.0549 0001377  91.0349 269.0801 15.08838668 81393,6917.884,95.438,540.702,538.797,0.0
52107.0,STARLINK-3658,PAYLOAD,2023-08-30 18:19:08,15.088401,0.000138,53.2164,257.8103,87.2906,272.8244,8.0202e-05,9.89e-06,0.0,0 STARLINK-3658,1 52107U 22029V   23242.76328969  .00000989  00000-0  80202-4 0  9995,2 52107  53.2164 257.8103 0001380  87.2906 272.8244 15.08840100 81609,6917.88,95.438,540.7,538.79,0.0
52107.0,STARLINK-3658,PAYLOAD,2023-08-31 02:16:04,15.08838739,0.000139,53.2164,256.3235,87.2062,272.9089,6.8667e-05,8.05e-06,0.0,0 STARLINK-3658,1 52107U 22029V   23243.09449122  .00000805  00000-0  68667-4 0  9995,2 52107  53.2164 256.3235 0001390  87.2062 272.9089 15.08838739 81651,6917.884,95.438,540.711,538.788,0.0
52107.0,STARLINK-3658,PAYLOAD,2023-09-01 06:53:00,15.0884318,0.00014,53.2162,250.9703,87.5553,272.56,6.8136e-05,7.97e-06,0.0,0 STARLINK-3658,1 52107U 22029V   23244.28680849  .00000797  00000-0  68136-4 0  9991,2 52107  53.2162 250.9703 0001400  87.5553 272.5600 15.08843180 81830,6917.871,95.437,540.704,538.767,0.0
52107.0,STARLINK-3658,PAYLOAD,2023-09-01 18:00:42,15.08841146,0.0001427,53.2167,248.8893,86.7169,273.3986,4.5249e-05,4.32e-06,0.0,0 STARLINK-3658,1 52107U 22029V   23244.75049013  .00000432  00000-0  45249-4 0  9991,2 52107  53.2167 248.8893 0001427  86.7169 273.3986 15.08841146 81908,6917.877,95.437,540.729,538.755,0.0
52107.0,STARLINK-3658,PAYLOAD,2023-09-02 06:43:47,15.0884121,0.0001389,53.2165,246.5101,87.2854,272.8297,6.2545e-05,7.08e-06,0.0,0 STARLINK-3658,1 52107U 22029V   23245.28040947  .00000708  00000-0  62545-4 0  9991,2 52107  53.2165 246.5101 0001389  87.2854 272.8297 15.08841210 81986,6917.877,95.437,540.703,538.781,0.0
52107.0,STARLINK-3658,PAYLOAD,2023-09-03 09:45:20,15.08846172,0.0001369,53.2163,241.4539,91.5193,268.5956,9.2111e-05,1.179e-05,0.0,0 STARLINK-3658,1 52107U 22029V   23246.40648451  .00001179  00000-0  92111-4 0  9995,2 52107  53.2163 241.4539 0001369  91.5193 268.5956 15.08846172 82151,6917.862,95.437,540.674,538.779,0.0
52107.0,STARLINK-3658,PAYLOAD,2023-09-03 11:20:43,15.08847398,0.000137,53.2166,241.1568,91.3684,268.7465,0.00010063,1.314e-05,0.0,0 STARLINK-3658,1 52107U 22029V   23246.47272307  .00001314  00000-0  10063-3 0  9991,2 52107  53.2166 241.1568 0001370  91.3684 268.7465 15.08847398 82167,6917.858,95.437,540.671,538.775,0.0
52107.0,STARLINK-3658,PAYLOAD,2023-09-04 00:03:49,15.08829502,0.0001326,53.2171,238.7779,93.6702,266.4442,-2.8501e-05,-7.41e-06,0.0,0 STARLINK-3658,1 52107U 22029V   23247.00265950 -.00000741  00000-0 -28501-4 0  9999,2 52107  53.2171 238.7779 0001326  93.6702 266.4442 15.08829502 82242,6917.912,95.438,540.695,538.86,0.0
52107.0,STARLINK-3658,PAYLOAD,2023-09-04 06:25:22,15.08833222,0.000141,53.2168,237.5886,96.4946,263.6207,8.0186e-06,-1.6e-06,0.0,0 STARLINK-3658,1 52107U 22029V   23247.26761743 -.00000160  00000-0  80186-5 0  9990,2 52107  53.2168 237.5886 0001410  96.4946 263.6207 15.08833222 82285,6917.901,95.438,540.742,538.791,0.0
52107.0,STARLINK-3658,PAYLOAD,2023-09-04 15:57:40,15.08835111,0.0001402,53.2169,235.8045,95.2266,264.8886,2.8921e-05,1.72e-06,0.0,0 STARLINK-3658,1 52107U 22029V   23247.66505747  .00000172  00000-0  28921-4 0  9994,2 52107  53.2169 235.8045 0001402  95.2266 264.8886 15.08835111 82349,6917.895,95.438,540.73,538.79,0.0
